IRIDIUM 36              
1 24967U 97056C   24121.90562062  .00000688  00000+0  22674-3 0  9990
2 24967  86.3984 346.1507 0001996  87.1455 272.9970 14.36759469393004
IRIDIUM 38              
1 25043U 97069E   24121.85842825  .00000847  00000+0  27829-3 0  9996
2 25043  86.3988  46.5405 0003265  53.6685 306.4813 14.37212795386712
IRIDIUM 44              
1 25078U 97077B   24121.80273800  .00000806  00000+0  25304-3 0  9990
2 25078  86.3998  35.2634 0001384  31.9301 328.1981 14.39348260384369
IRIDIUM 45              
1 25104U 97082A   24121.80657129  .00013213  00000+0  74921-3 0  9991
2 25104  86.3738 244.4612 0163826  52.2438 309.3508 15.02055147389741
IRIDIUM 24              
1 25105U 97082B   24121.88003912  .00000933  00000+0  28331-3 0  9994
2 25105  86.3901 254.8898 0011539  10.2281 349.9151 14.41117619383819
IRIDIUM 51              
1 25262U 98018A   24121.87751268  .00011527  00000+0  54872-3 0  9991
2 25262  86.3957 254.3866 0148666 357.7329   2.3214 15.09653505384273
